GLOBALSTAR M067         
1 32263U 07048A   24306.52104138 -.00000057  00000+0  29630-3 0  9999
2 32263  51.9750 342.0964 0000825 201.3955 315.1567 12.40658420781223
GLOBALSTAR M070         
1 32264U 07048B   24306.48446229 -.00000071  00000+0  18409-3 0  9993
2 32264  51.9734 102.1693 0000704  91.9226 306.1718 12.62304634784916
GLOBALSTAR M066         
1 32265U 07048C   24306.39808303 -.00000039  00000+0  43107-3 0  9996
2 32265  51.9688 329.4824 0000164 218.8741 246.7873 12.42164646787073
GLOBALSTAR M068         
1 32266U 07048D   24306.29898419 -.00000044  00000+0  33443-3 0  9991
2 32266  51.9883 276.9269 0001270  13.9773 135.9402 12.62805818788767
GLOBALSTAR M079         
1 37188U 10054A   24306.52404944 -.00000099  00000+0  27070-4 0  9992
2 37188  52.0016 112.8287 0001131 110.1404 315.3350 12.62266580647701
GLOBALSTAR M074         
1 37189U 10054B   24306.46044159 -.00000076  00000+0  15545-3 0  9992
2 37189  51.9994 112.3765 0000737  99.4835 279.1366 12.62258665648305
GLOBALSTAR M076         
1 37190U 10054C   24306.49093441 -.00000078  00000+0  14196-3 0  9998
2 37190  52.0008 112.4397 0000842 121.5536 272.2003 12.62273130648024
GLOBALSTAR M077         
1 37191U 10054D   24306.63157575 -.00000099  00000+0  28031-4 0  9991
2 37191  52.0077  68.7999 0000703 109.3790 264.4488 12.62266134648413
